NORAD_CAT_ID,OBJECT_NAME,OBJECT_TYPE,EPOCH,MEAN_MOTION,ECCENTRICITY,INCLINATION,RA_OF_ASC_NODE,ARG_OF_PERICENTER,MEAN_ANOMALY,BSTAR,MEAN_MOTION_DOT,MEAN_MOTION_DDOT,TLE_LINE0,TLE_LINE1,TLE_LINE2,SEMIMAJOR_AXIS,PERIOD,APOGEE,PERIGEE,DECAYED
55654.0,STARLINK-5070,PAYLOAD,2023-12-22 11:14:39,14.98325272,0.0002626,70.0008,62.438,249.8801,110.2075,3.3024e-05,3.01e-06,0.0,0 STARLINK-5070,1 55654U 23021AC  23356.46851402  .00000301  00000-0  33024-4 0  9992,2 55654  70.0008  62.4380 0002626 249.8801 110.2075 14.98325272 47429,6950.208,96.107,573.898,570.247,0.0
55654.0,STARLINK-5070,PAYLOAD,2023-12-22 14:26:55,14.98331001,0.000264,70.0009,62.1017,251.4061,108.6812,3.6809e-05,3.46e-06,0.0,0 STARLINK-5070,1 55654U 23021AC  23356.60203039  .00000346  00000-0  36809-4 0  9998,2 55654  70.0009  62.1017 0002640 251.4061 108.6812 14.98331001 47749,6950.19,96.107,573.89,570.22,0.0
55654.0,STARLINK-5070,PAYLOAD,2023-12-23 03:15:59,14.98333832,0.000253,70.0014,60.7557,244.3478,115.742,-3.9048e-05,-5.59e-06,0.0,0 STARLINK-5070,1 55654U 23021AC  23357.13610984 -.00000559  00000-0 -39048-4 0  9994,2 55654  70.0014  60.7557 0002530 244.3478 115.7420 14.98333832 47523,6950.181,96.107,573.804,570.288,0.0
55654.0,STARLINK-5070,PAYLOAD,2023-12-23 14:28:56,14.9833249,0.0002564,70.0012,59.5767,248.8399,111.2486,-4.5819e-05,-6.4e-06,0.0,0 STARLINK-5070,1 55654U 23021AC  23357.60343072 -.00000640  00000-0 -45819-4 0  9991,2 55654  70.0012  59.5767 0002564 248.8399 111.2486 14.98332490 47890,6950.185,96.107,573.832,570.268,0.0
55654.0,STARLINK-5070,PAYLOAD,2023-12-24 03:18:00,14.98329797,0.0002674,70.0009,58.2292,250.2688,109.8183,0.00010874,1.205e-05,0.0,0 STARLINK-5070,1 55654U 23021AC  23358.13750688  .00001205  00000-0  10874-3 0  9993,2 55654  70.0009  58.2292 0002674 250.2688 109.8183 14.98329797 47674,6950.194,96.107,573.917,570.2,0.0
55654.0,STARLINK-5070,PAYLOAD,2023-12-24 14:30:57,14.98321349,0.0002659,70.001,57.0503,264.8364,95.2492,0.00032649,3.804e-05,0.0,0 STARLINK-5070,1 55654U 23021AC  23358.60482802  .00003804  00000-0  32649-3 0  9996,2 55654  70.0010  57.0503 0002659 264.8364  95.2492 14.98321349 48041,6950.22,96.108,573.933,570.237,0.0
55654.0,STARLINK-5070,PAYLOAD,2023-12-25 12:56:50,14.98329391,0.0002691,70.0005,54.6937,257.7719,102.3139,4.0269e-05,3.88e-06,0.0,0 STARLINK-5070,1 55654U 23021AC  23359.53946929  .00000388  00000-0  40269-4 0  9996,2 55654  70.0005  54.6937 0002691 257.7719 102.3139 14.98329391 48188,6950.195,96.107,573.93,570.189,0.0
55654.0,STARLINK-5070,PAYLOAD,2023-12-26 03:22:02,14.98328275,0.0002624,70.0007,53.1788,259.1703,100.9161,-5.1224e-05,-7.04e-06,0.0,0 STARLINK-5070,1 55654U 23021AC  23360.14031210 -.00000704  00000-0 -51224-4 0  9990,2 55654  70.0007  53.1788 0002624 259.1703 100.9161 14.98328275 47978,6950.198,96.107,573.887,570.239,0.0
55654.0,STARLINK-5070,PAYLOAD,2023-12-26 11:22:46,14.98290269,0.0002857,70.0006,52.3369,253.2967,106.7878,-0.00044054,-5.34e-05,0.0,0 STARLINK-5070,1 55654U 23021AC  23360.47415203 -.00005340  00000-0 -44054-3 0  9997,2 55654  70.0006  52.3369 0002857 253.2967 106.7878 14.98290269 48025,6950.316,96.11,574.166,570.195,0.0
55654.0,STARLINK-5070,PAYLOAD,2023-12-26 14:35:01,14.98316038,0.0002979,70.0001,51.9998,268.2386,91.8432,-0.00016044,-2.006e-05,0.0,0 STARLINK-5070,1 55654U 23021AC  23360.60765176 -.00002006  00000-0 -16044-3 0  9993,2 55654  70.0001  51.9998 0002979 268.2386  91.8432 14.98316038 48347,6950.236,96.108,574.172,570.031,0.0
55654.0,STARLINK-5070,PAYLOAD,2023-12-27 03:24:04,14.98322829,0.000294,70.0012,50.6552,265.8568,94.2255,3.7313e-05,3.52e-06,0.0,0 STARLINK-5070,1 55654U 23021AC  23361.14172414  .00000352  00000-0  37313-4 0  9993,2 55654  70.0012  50.6552 0002940 265.8568  94.2255 14.98322829 48125,6950.215,96.107,574.123,570.037,0.0
55654.0,STARLINK-5070,PAYLOAD,2023-12-27 11:24:44,14.98332274,0.0002572,70.0011,49.8143,259.095,100.992,0.00012806,1.435e-05,0.0,0 STARLINK-5070,1 55654U 23021AC  23361.47551709  .00001435  00000-0  12806-3 0  9999,2 55654  70.0011  49.8143 0002572 259.0950 100.9920 14.98332274 48175,6950.186,96.107,573.838,570.263,0.0
55654.0,STARLINK-5070,PAYLOAD,2023-12-27 13:00:52,14.98334211,0.0002748,70.0004,49.6446,264.7448,95.3398,0.00014088,1.589e-05,0.0,0 STARLINK-5070,1 55654U 23021AC  23361.54227561  .00001589  00000-0  14088-3 0  9997,2 55654  70.0004  49.6446 0002748 264.7448  95.3398 14.98334211 48484,6950.18,96.107,573.955,570.135,0.0
55654.0,STARLINK-5070,PAYLOAD,2023-12-28 11:26:45,14.98315459,0.000301,69.9999,47.2871,269.2639,90.8175,0.00063883,7.535e-05,0.0,0 STARLINK-5070,1 55654U 23021AC  23362.47691310  .00007535  00000-0  63883-3 0  9991,2 55654  69.9999  47.2871 0003010 269.2639  90.8175 14.98315459 48324,6950.238,96.108,574.195,570.011,0.0
55654.0,STARLINK-5070,PAYLOAD,2023-12-28 13:02:53,14.98316934,0.0003054,69.9999,47.1191,270.4304,89.6505,0.00064486,7.607e-05,0.0,0 STARLINK-5070,1 55654U 23021AC  23362.54367255  .00007607  00000-0  64486-3 0  9997,2 55654  69.9999  47.1191 0003054 270.4304  89.6505 14.98316934 48635,6950.233,96.108,574.221,569.976,0.0
55654.0,STARLINK-5070,PAYLOAD,2023-12-29 11:28:46,14.98337216,0.0002638,70.0007,44.7622,264.7647,95.3211,-3.7075e-05,-5.35e-06,0.0,0 STARLINK-5070,1 55654U 23021AC  23363.47831414 -.00000535  00000-0 -37075-4 0  9993,2 55654  70.0007  44.7622 0002638 264.7647  95.3211 14.98337216 48479,6950.171,96.107,573.869,570.202,0.0
55654.0,STARLINK-5070,PAYLOAD,2023-12-29 13:04:54,14.98337655,0.0002632,70.0007,44.594,264.9702,95.1156,-3.6744e-05,-5.31e-06,0.0,0 STARLINK-5070,1 55654U 23021AC  23363.54507340 -.00000531  00000-0 -36744-4 0  9997,2 55654  70.0007  44.5940 0002632 264.9702  95.1156 14.98337655 48785,6950.169,96.107,573.864,570.205,0.0
55654.0,STARLINK-5070,PAYLOAD,2023-12-30 03:30:08,14.98317132,0.000229,70.002,43.0814,240.521,119.5721,-0.00025229,-3.101e-05,0.0,0 STARLINK-5070,1 55654U 23021AC  23364.14593211 -.00003101  00000-0 -25229-3 0  9997,2 55654  70.0020  43.0814 0002290 240.5210 119.5721 14.98317132 48572,6950.233,96.108,573.689,570.506,0.0
55654.0,STARLINK-5070,PAYLOAD,2023-12-30 13:06:56,14.98320615,0.0002717,70.0008,42.0691,251.6489,108.4374,-0.0002158,-2.666e-05,0.0,0 STARLINK-5070,1 55654U 23021AC  23364.54649260 -.00002666  00000-0 -21580-3 0  9998,2 55654  70.0008  42.0691 0002717 251.6489 108.4374 14.98320615 48936,6950.222,96.108,573.975,570.199,0.0
55654.0,STARLINK-5070,PAYLOAD,2023-12-31 03:32:08,14.98329522,0.000334,69.999,40.5527,275.7244,84.3534,3.4372e-06,-5.2e-07,0.0,0 STARLINK-5070,1 55654U 23021AC  23365.14732182 -.00000052  00000-0  34372-5 0  9992,2 55654  69.9990  40.5527 0003340 275.7244  84.3534 14.98329522 48726,6950.194,96.107,574.381,569.738,0.0
55654.0,STARLINK-5070,PAYLOAD,2023-12-31 11:32:48,14.98334977,0.0003079,69.9995,39.7109,275.4049,84.6759,8.1701e-05,8.82e-06,0.0,0 STARLINK-5070,1 55654U 23021AC  23365.48111661  .00000882  00000-0  81701-4 0  9999,2 55654  69.9995  39.7109 0003079 275.4049  84.6759 14.98334977 48773,6950.178,96.107,574.182,569.903,0.0
55654.0,STARLINK-5070,PAYLOAD,2023-12-31 13:08:56,14.98335494,0.0003017,69.9996,39.5429,270.9113,89.17,8.7188e-05,9.48e-06,0.0,0 STARLINK-5070,1 55654U 23021AC  23365.54787543  .00000948  00000-0  87188-4 0  9992,2 55654  69.9996  39.5429 0003017 270.9113  89.1700 14.98335494 49087,6950.176,96.107,574.138,569.944,0.0
55654.0,STARLINK-5070,PAYLOAD,2024-01-01 11:34:48,14.98326138,0.0003069,69.9993,37.1859,271.9586,88.1221,0.00053355,6.278e-05,0.0,0 STARLINK-5070,1 55654U 23021AC  24001.48250898  .00006278  00000-0  53355-3 0  9991,2 55654  69.9993  37.1859 0003069 271.9586  88.1221 14.98326138 48921,6950.205,96.107,574.203,569.937,0.0
55654.0,STARLINK-5070,PAYLOAD,2024-01-01 13:10:56,14.98333748,0.0003286,69.9993,37.0176,277.431,82.6475,0.00042176,4.943e-05,0.0,0 STARLINK-5070,1 55654U 23021AC  24001.54926659  .00004943  00000-0  42176-3 0  9999,2 55654  69.9993  37.0176 0003286 277.4310  82.6475 14.98333748 49239,6950.181,96.107,574.33,569.762,0.0
55654.0,STARLINK-5070,PAYLOAD,2024-01-02 11:36:50,14.98334979,0.0002634,70.0006,34.6629,259.3641,100.7222,-4.604e-05,-6.42e-06,0.0,0 STARLINK-5070,1 55654U 23021AC  24002.48391208 -.00000642  00000-0 -46040-4 0  9998,2 55654  70.0006  34.6629 0002634 259.3641 100.7222 14.98334979 49076,6950.177,96.107,573.873,570.212,0.0
55654.0,STARLINK-5070,PAYLOAD,2024-01-03 11:38:50,14.98335249,0.0002716,70.0003,32.1373,261.3155,98.7697,-0.00014104,-1.776e-05,0.0,0 STARLINK-5070,1 55654U 23021AC  24003.48530881 -.00001776  00000-0 -14104-3 0  9995,2 55654  70.0003  32.1373 0002716 261.3155  98.7697 14.98335249 49226,6950.177,96.107,573.929,570.154,0.0
55654.0,STARLINK-5070,PAYLOAD,2024-01-04 11:40:51,14.98331477,0.0002824,69.9999,29.612,266.1118,93.9718,1.5032e-05,8.6e-07,0.0,0 STARLINK-5070,1 55654U 23021AC  24004.48670483  .00000086  00000-0  15032-4 0  9992,2 55654  69.9999  29.6120 0002824 266.1118  93.9718 14.98331477 49376,6950.188,96.107,574.016,570.091,0.0
55654.0,STARLINK-5070,PAYLOAD,2024-01-05 10:06:44,14.98335589,0.0002933,70.0,27.2545,272.1681,87.9142,-0.0001329,-1.679e-05,0.0,0 STARLINK-5070,1 55654U 23021AC  24005.42134638 -.00001679  00000-0 -13290-3 0  9998,2 55654  70.0000  27.2545 0002933 272.1681  87.9142 14.98335589 49811,6950.176,96.107,574.079,570.002,0.0
55654.0,STARLINK-5070,PAYLOAD,2024-01-06 03:44:12,14.98333551,0.0002841,69.9997,25.4028,270.042,90.0413,2.8353e-05,2.45e-06,0.0,0 STARLINK-5070,1 55654U 23021AC  24006.15570339  .00000245  00000-0  28353-4 0  9994,2 55654  69.9997  25.4028 0002841 270.0420  90.0413 14.98333551 49627,6950.182,96.107,574.021,570.072,0.0
55654.0,STARLINK-5070,PAYLOAD,2024-01-06 11:44:52,14.98334693,0.0002792,69.9998,24.5613,269.8218,90.2621,4.0435e-05,3.9e-06,0.0,0 STARLINK-5070,1 55654U 23021AC  24006.48950147  .00000390  00000-0  40435-4 0  9995,2 55654  69.9998  24.5613 0002792 269.8218  90.2621 14.98334693 49973,6950.178,96.107,573.984,570.103,0.0
